[charon]
name = Charon
parent = Pluto
radius = 593.
halo = true
color = 1.,1.,1.
tex_map = lune.png
tex_halo = star16x16.png
lighting = true
albedo = 0.35
rot_periode = 153.293904
rot_rotation_offset = 213.3
rot_obliquity = 1.0
#rot_equator_ascending_node = 287.6
coord_func = ell_orbit
orbit_Epoch = 2451545.0
orbit_Period = 6.387246
orbit_SemiMajorAxis = 19636
orbit_Eccentricity = 0.0002
orbit_Inclination = 0.0048
orbit_AscendingNode = 93.5582
orbit_LongOfPericenter = 227.3188
orbit_MeanLongitude = 320.7583


[solar_system_observer]
name = Solar System Observer
parent = Sun
radius = 1.
halo = false
color = 0.,0.,0.
tex_map = lune.png
tex_halo = star16x16.png
lighting = false
albedo = 0.
coord_func = ell_orbit
orbit_Epoch = 2451545.0
orbit_Period = 100000000000000
orbit_SemiMajorAxis = 1000000000000
orbit_Eccentricity = 0
orbit_Inclination = 90
orbit_AscendingNode = 0
orbit_LongOfPericenter = 0
orbit_MeanLongitude = 90
rot_obliquity = 90
hidden = true


[mcnaught]
name = C/2006 P1 (McNaught)
parent = Sun
radius = 1000
oblateness = 0.0
halo = true
color = 1.0,1.0,1.0
tex_halo = star16x16.png
tex_map = nomap.png
coord_func = comet_orbit
orbit_TimeAtPericenter = 2454112.7968
orbit_PericenterDistance = 0.170729
orbit_Eccentricity = 1.000021
orbit_ArgOfPericenter = 155.9756
orbit_AscendingNode = 267.4148
orbit_Inclination = 77.8348
lighting = false
albedo = 1
orbit_visualization_period = 365.25

[ceres]
name = Ceres
parent = Sun
radius = 470
oblateness = 0.0
albedo = 0.113
lighting = true
orbit_visualization_period = 1680.15
halo = true
color = 1.0,1.0,1.0
tex_halo = star16x16.png
tex_map = nomap.png
coord_func = comet_orbit
orbit_Epoch = 2454200.5
orbit_MeanAnomaly = 215.80100
orbit_SemiMajorAxis = 2.7659565
orbit_Eccentricity = 0.0797602
orbit_ArgOfPericenter = 73.15069
orbit_AscendingNode = 80.40696
orbit_Inclination = 10.58671

[pallas]
name = Pallas
parent = Sun
radius = 220
oblateness = 0.0
albedo = 0.159
lighting = true
orbit_visualization_period = 1686.333
halo = true
color = 1.0,1.0,1.0
tex_halo = star16x16.png
tex_map = nomap.png
coord_func = comet_orbit
orbit_Epoch = 2454200.5
orbit_MeanAnomaly = 199.72616
orbit_SemiMajorAxis = 2.7716684
orbit_Eccentricity = 0.2307589
orbit_ArgOfPericenter = 310.34481
orbit_AscendingNode = 173.13579
orbit_Inclination = 34.84182

[juno]
name = Juno
parent = Sun
radius = 130
oblateness = 0.0
albedo = 0.238
lighting = true
orbit_visualization_period = 1591.93
halo = true
color = 1.0,1.0,1.0
tex_halo = star16x16.png
tex_map = nomap.png
coord_func = comet_orbit
orbit_Epoch = 2454200.5
orbit_MeanAnomaly = 121.22421
orbit_SemiMajorAxis = 2.6678842
orbit_Eccentricity = 0.2580231
orbit_ArgOfPericenter = 247.84192
orbit_AscendingNode = 170.12007
orbit_Inclination = 12.97036

[vesta]
name = Vesta
parent = Sun
radius = 280
oblateness = 0.0
albedo = 0.423
lighting = true
orbit_visualization_period = 1325.46
halo = true
color = 1.0,1.0,1.0
tex_halo = star16x16.png
tex_map = nomap.png
coord_func = comet_orbit
orbit_Epoch = 2454200.5
orbit_MeanAnomaly = 341.59209
orbit_SemiMajorAxis = 2.3619563
orbit_Eccentricity = 0.0893657
orbit_ArgOfPericenter = 150.18003
orbit_AscendingNode = 103.91841
orbit_Inclination = 7.13380

[eris] 
name = Eris 
parent = Sun 
radius = 1300 
oblateness = 0.0 
albedo = 0.689 
lighting = true 
orbit_visualization_period = 204376.01809 
halo = true 
color = 1.0,1.0,1.0 
rot_periode = 8 
tex_halo = star16x16.png 
tex_map = nomap.png 
coord_func = comet_orbit 
orbit_Epoch = 2454800.5 
orbit_MeanAnomaly = 198.858225 
orbit_SemiMajorAxis = 67.902798 
orbit_Eccentricity = 0.4361532 
orbit_ArgOfPericenter = 151.51961 
orbit_AscendingNode = 35.95741 
orbit_Inclination = 44.022944 
